ONEWEB-0249             
1 48967U 21060A   25207.17713220  .00000042  00000+0  76466-4 0  9990
2 48967  87.9054 293.7628 0001940  97.5452 262.5899 13.16595557198008
ONEWEB-0250             
1 48968U 21060B   25207.20851442  .00000088  00000+0  17175-3 0  9995
2 48968  87.9053 292.5807 0001598  69.7015 290.4293 13.25810118198314
ONEWEB-0252             
1 48970U 21060D   25206.75281874  .00000005  00000+0 -19935-4 0  9990
2 48970  87.9053 293.8408 0002223 106.2185 253.9190 13.16595123196706
ONEWEB-0253             
1 48971U 21060E   25207.19771766  .00000013  00000+0  96105-6 0  9998
2 48971  87.9050 293.7558 0002159  94.1395 265.9983 13.16595272197973
ONEWEB-0254             
1 48972U 21060F   25206.75124635  .00000004  00000+0 -24423-4 0  9990
2 48972  87.9055 293.8303 0002140  87.0974 273.0402 13.16594426196630
ONEWEB-0255             
1 48973U 21060G   25206.71323910 -.00000054  00000+0 -17386-3 0  9999
2 48973  87.9051 293.8684 0002120  92.1203 268.0170 13.16595724196705
ONEWEB-0256             
1 48974U 21060H   25207.19533333  .00000008  00000+0 -12451-4 0  9992
2 48974  87.9047 293.7834 0002073 102.7879 257.3484 13.16595712198024
ONEWEB-0257             
1 48975U 21060J   25207.22779941  .00000149  00000+0  35731-3 0  9994
2 48975  87.9052 293.7433 0002192  95.5318 264.6063 13.16595181197983
